[{"OBJECT_NAME":"LYNK TOWER 5","OBJECT_ID":"2024-043Z","EPOCH":"2026-03-09T22:11:51.175104","MEAN_MOTION":15.29454506,"ECCENTRICITY":0.00104056,"INCLINATION":97.5458,"RA_OF_ASC_NODE":204.7305,"ARG_OF_PERICENTER":234.6422,"MEAN_ANOMALY":125.3846,"EPHEMERIS_TYPE":0,"CLASSIFICATION_TYPE":"U","NORAD_CAT_ID":59121,"ELEMENT_SET_NO":999,"REV_AT_EPOCH":11186,"BSTAR":0.00031901545,"MEAN_MOTION_DOT":9.048e-5,"MEAN_MOTION_DDOT":0},{"OBJECT_NAME":"STARLINK-34200","OBJECT_ID":"2025-113S","EPOCH":"2026-03-09T12:39:38.941056","MEAN_MOTION":15.30181298,"ECCENTRICITY":0.00013119,"INCLINATION":53.1591,"RA_OF_ASC_NODE":91.6416,"ARG_OF_PERICENTER":92.1992,"MEAN_ANOMALY":267.9159,"EPHEMERIS_TYPE":0,"CLASSIFICATION_TYPE":"U","NORAD_CAT_ID":64186,"ELEMENT_SET_NO":999,"REV_AT_EPOCH":4504,"BSTAR":0.0010373259,"MEAN_MOTION_DOT":0.00030472,"MEAN_MOTION_DDOT":0}]
